CCSDS_OMM_VERS = 2.0
CREATION_DATE  = 
ORIGINATOR     = 

OBJECT_NAME    = STARLINK-36861
OBJECT_ID      = 2026-037C
CENTER_NAME    = EARTH
REF_FRAME      = TEME
TIME_SYSTEM    = UTC
MEAN_ELEMENT_THEORY = SGP/SGP4

EPOCH          = 2026-03-11T04:00:00.999936
MEAN_MOTION    = 15.81981214
ECCENTRICITY   = .0002219
INCLINATION    = 42.9985
RA_OF_ASC_NODE = 189.5042
ARG_OF_PERICENTER = 242.2027
MEAN_ANOMALY   = 180.0719

EPHEMERIS_TYPE = 0
CLASSIFICATION_TYPE = U
NORAD_CAT_ID   = 67934
ELEMENT_SET_NO = 999
REV_AT_EPOCH   = 343
BSTAR          = .15724E-3
MEAN_MOTION_DOT = .3265E-3
MEAN_MOTION_DDOT = 0

CCSDS_OMM_VERS = 2.0
CREATION_DATE  = 
ORIGINATOR     = 

OBJECT_NAME    = STARLINK-36860
OBJECT_ID      = 2026-037D
CENTER_NAME    = EARTH
REF_FRAME      = TEME
TIME_SYSTEM    = UTC
MEAN_ELEMENT_THEORY = SGP/SGP4

EPOCH          = 2026-03-11T04:00:00.999936
MEAN_MOTION    = 15.81991708
ECCENTRICITY   = .0002142
INCLINATION    = 42.9982
RA_OF_ASC_NODE = 189.4933
ARG_OF_PERICENTER = 252.4061
MEAN_ANOMALY   = 174.1370

EPHEMERIS_TYPE = 0
CLASSIFICATION_TYPE = U
NORAD_CAT_ID   = 67935
ELEMENT_SET_NO = 999
REV_AT_EPOCH   = 343
BSTAR          = .80729E-4
MEAN_MOTION_DOT = .16479E-3
MEAN_MOTION_DDOT = 0

CCSDS_OMM_VERS = 2.0
CREATION_DATE  = 
ORIGINATOR     = 

OBJECT_NAME    = STARLINK-36848
OBJECT_ID      = 2026-037E
CENTER_NAME    = EARTH
REF_FRAME      = TEME
TIME_SYSTEM    = UTC
MEAN_ELEMENT_THEORY = SGP/SGP4

EPOCH          = 2026-03-11T04:00:00.999936
MEAN_MOTION    = 15.81980731
ECCENTRICITY   = .0001832
INCLINATION    = 42.9984
RA_OF_ASC_NODE = 189.4713
ARG_OF_PERICENTER = 285.8024
MEAN_ANOMALY   = 149.2916

EPHEMERIS_TYPE = 0
CLASSIFICATION_TYPE = U
NORAD_CAT_ID   = 67936
ELEMENT_SET_NO = 999
REV_AT_EPOCH   = 343
BSTAR          = .14436E-3
MEAN_MOTION_DOT = .2992E-3
MEAN_MOTION_DDOT = 0

CCSDS_OMM_VERS = 2.0
CREATION_DATE  = 
ORIGINATOR     = 

OBJECT_NAME    = STARLINK-36370
OBJECT_ID      = 2026-037F
CENTER_NAME    = EARTH
REF_FRAME      = TEME
TIME_SYSTEM    = UTC
MEAN_ELEMENT_THEORY = SGP/SGP4

EPOCH          = 2026-03-11T04:00:00.999936
MEAN_MOTION    = 15.81998557
ECCENTRICITY   = .0001615
INCLINATION    = 42.9984
RA_OF_ASC_NODE = 189.4832
ARG_OF_PERICENTER = 265.8668
MEAN_ANOMALY   = 164.9478

EPHEMERIS_TYPE = 0
CLASSIFICATION_TYPE = U
NORAD_CAT_ID   = 67937
ELEMENT_SET_NO = 999
REV_AT_EPOCH   = 343
BSTAR          = .31209E-4
MEAN_MOTION_DOT = .6038E-4
MEAN_MOTION_DDOT = 0

CCSDS_OMM_VERS = 2.0
CREATION_DATE  = 
ORIGINATOR     = 

OBJECT_NAME    = STARLINK-36371
OBJECT_ID      = 2026-037G
CENTER_NAME    = EARTH
REF_FRAME      = TEME
TIME_SYSTEM    = UTC
MEAN_ELEMENT_THEORY = SGP/SGP4

EPOCH          = 2026-03-11T04:00:00.999936
MEAN_MOTION    = 15.81965822
ECCENTRICITY   = .0002134
INCLINATION    = 42.9984
RA_OF_ASC_NODE = 189.4604
ARG_OF_PERICENTER = 259.5455
MEAN_ANOMALY   = 179.8253

EPHEMERIS_TYPE = 0
CLASSIFICATION_TYPE = U
NORAD_CAT_ID   = 67938
ELEMENT_SET_NO = 999
REV_AT_EPOCH   = 343
BSTAR          = .31106E-3
MEAN_MOTION_DOT = .65309E-3
MEAN_MOTION_DDOT = 0

CCSDS_OMM_VERS = 2.0
CREATION_DATE  = 
ORIGINATOR     = 

OBJECT_NAME    = STARLINK-36246
OBJECT_ID      = 2026-037H
CENTER_NAME    = EARTH
REF_FRAME      = TEME
TIME_SYSTEM    = UTC
MEAN_ELEMENT_THEORY = SGP/SGP4

EPOCH          = 2026-03-11T04:00:00.999936
MEAN_MOTION    = 15.81997779
ECCENTRICITY   = .0001861
INCLINATION    = 42.9984
RA_OF_ASC_NODE = 189.4501
ARG_OF_PERICENTER = 250.2521
MEAN_ANOMALY   = 193.3778

EPHEMERIS_TYPE = 0
CLASSIFICATION_TYPE = U
NORAD_CAT_ID   = 67939
ELEMENT_SET_NO = 999
REV_AT_EPOCH   = 334
BSTAR          = .62947E-4
MEAN_MOTION_DOT = .1273E-3
MEAN_MOTION_DDOT = 0

CCSDS_OMM_VERS = 2.0
CREATION_DATE  = 
ORIGINATOR     = 

OBJECT_NAME    = STARLINK-36907
OBJECT_ID      = 2026-037J
CENTER_NAME    = EARTH
REF_FRAME      = TEME
TIME_SYSTEM    = UTC
MEAN_ELEMENT_THEORY = SGP/SGP4

EPOCH          = 2026-03-11T04:00:00.999936
MEAN_MOTION    = 15.82006833
ECCENTRICITY   = .0001845
INCLINATION    = 42.9983
RA_OF_ASC_NODE = 189.4172
ARG_OF_PERICENTER = 275.1322
MEAN_ANOMALY   = 181.3147

EPHEMERIS_TYPE = 0
CLASSIFICATION_TYPE = U
NORAD_CAT_ID   = 67940
ELEMENT_SET_NO = 999
REV_AT_EPOCH   = 343
BSTAR          = -.24649E-4
MEAN_MOTION_DOT = -.5718E-4
MEAN_MOTION_DDOT = 0

CCSDS_OMM_VERS = 2.0
CREATION_DATE  = 
ORIGINATOR     = 

OBJECT_NAME    = STARLINK-36927
OBJECT_ID      = 2026-037K
CENTER_NAME    = EARTH
REF_FRAME      = TEME
TIME_SYSTEM    = UTC
MEAN_ELEMENT_THEORY = SGP/SGP4

EPOCH          = 2026-03-11T04:00:00.999936
MEAN_MOTION    = 15.81971969
ECCENTRICITY   = .0001949
INCLINATION    = 42.9985
RA_OF_ASC_NODE = 189.3956
ARG_OF_PERICENTER = 270.7132
MEAN_ANOMALY   = 194.2828

EPHEMERIS_TYPE = 0
CLASSIFICATION_TYPE = U
NORAD_CAT_ID   = 67941
ELEMENT_SET_NO = 999
REV_AT_EPOCH   = 343
BSTAR          = .28495E-3
MEAN_MOTION_DOT = .5976E-3
MEAN_MOTION_DDOT = 0

CCSDS_OMM_VERS = 2.0
CREATION_DATE  = 
ORIGINATOR     = 

OBJECT_NAME    = STARLINK-36914
OBJECT_ID      = 2026-037L
CENTER_NAME    = EARTH
REF_FRAME      = TEME
TIME_SYSTEM    = UTC
MEAN_ELEMENT_THEORY = SGP/SGP4

EPOCH          = 2026-03-11T04:00:00.999936
MEAN_MOTION    = 15.82000840
ECCENTRICITY   = .0001339
INCLINATION    = 42.9985
RA_OF_ASC_NODE = 189.4389
ARG_OF_PERICENTER = 257.5199
MEAN_ANOMALY   = 190.3781

EPHEMERIS_TYPE = 0
CLASSIFICATION_TYPE = U
NORAD_CAT_ID   = 67942
ELEMENT_SET_NO = 999
REV_AT_EPOCH   = 343
BSTAR          = .84008E-4
MEAN_MOTION_DOT = .17178E-3
MEAN_MOTION_DDOT = 0

CCSDS_OMM_VERS = 2.0
CREATION_DATE  = 
ORIGINATOR     = 

OBJECT_NAME    = STARLINK-36851
OBJECT_ID      = 2026-037M
CENTER_NAME    = EARTH
REF_FRAME      = TEME
TIME_SYSTEM    = UTC
MEAN_ELEMENT_THEORY = SGP/SGP4

EPOCH          = 2026-03-11T04:00:00.999936
MEAN_MOTION    = 15.81972239
ECCENTRICITY   = .0001167
INCLINATION    = 42.9984
RA_OF_ASC_NODE = 189.4284
ARG_OF_PERICENTER = 263.1118
MEAN_ANOMALY   = 189.0698

EPHEMERIS_TYPE = 0
CLASSIFICATION_TYPE = U
NORAD_CAT_ID   = 67943
ELEMENT_SET_NO = 999
REV_AT_EPOCH   = 343
BSTAR          = .31209E-3
MEAN_MOTION_DOT = .65543E-3
MEAN_MOTION_DDOT = 0

CCSDS_OMM_VERS = 2.0
CREATION_DATE  = 
ORIGINATOR     = 

OBJECT_NAME    = STARLINK-36892
OBJECT_ID      = 2026-037N
CENTER_NAME    = EARTH
REF_FRAME      = TEME
TIME_SYSTEM    = UTC
MEAN_ELEMENT_THEORY = SGP/SGP4

EPOCH          = 2026-03-11T04:00:00.999936
MEAN_MOTION    = 15.82008724
ECCENTRICITY   = .0001361
INCLINATION    = 42.9983
RA_OF_ASC_NODE = 189.4074
ARG_OF_PERICENTER = 288.2600
MEAN_ANOMALY   = 172.4551

EPHEMERIS_TYPE = 0
CLASSIFICATION_TYPE = U
NORAD_CAT_ID   = 67944
ELEMENT_SET_NO = 999
REV_AT_EPOCH   = 343
BSTAR          = .7589E-5
MEAN_MOTION_DOT = .1065E-4
MEAN_MOTION_DDOT = 0

CCSDS_OMM_VERS = 2.0
CREATION_DATE  = 
ORIGINATOR     = 

OBJECT_NAME    = STARLINK-36908
OBJECT_ID      = 2026-037P
CENTER_NAME    = EARTH
REF_FRAME      = TEME
TIME_SYSTEM    = UTC
MEAN_ELEMENT_THEORY = SGP/SGP4

EPOCH          = 2026-03-11T04:00:00.999936
MEAN_MOTION    = 15.81962655
ECCENTRICITY   = .0001865
INCLINATION    = 42.9985
RA_OF_ASC_NODE = 189.3851
ARG_OF_PERICENTER = 257.8102
MEAN_ANOMALY   = 211.4725

EPHEMERIS_TYPE = 0
CLASSIFICATION_TYPE = U
NORAD_CAT_ID   = 67945
ELEMENT_SET_NO = 999
REV_AT_EPOCH   = 343
BSTAR          = .34154E-3
MEAN_MOTION_DOT = .71803E-3
MEAN_MOTION_DDOT = 0

