STARLINK-36861          
1 67934U 26037C   26070.16667824  .00032650  00000+0  15724-3 0  9999
2 67934  42.9985 189.5042 0002219 242.2027 180.0719 15.81981214  3436
STARLINK-36860          
1 67935U 26037D   26070.16667824  .00016479  00000+0  80729-4 0  9999
2 67935  42.9982 189.4933 0002142 252.4061 174.1370 15.81991708  3434
STARLINK-36848          
1 67936U 26037E   26070.16667824  .00029920  00000+0  14436-3 0  9996
2 67936  42.9984 189.4713 0001832 285.8024 149.2916 15.81980731  3430
STARLINK-36370          
1 67937U 26037F   26070.16667824  .00006038  00000+0  31209-4 0  9990
2 67937  42.9984 189.4832 0001615 265.8668 164.9478 15.81998557  3436
STARLINK-36371          
1 67938U 26037G   26070.16667824  .00065309  00000+0  31106-3 0  9992
2 67938  42.9984 189.4604 0002134 259.5455 179.8253 15.81965822  3430
STARLINK-36246          
1 67939U 26037H   26070.16667824  .00012730  00000+0  62947-4 0  9991
2 67939  42.9984 189.4501 0001861 250.2521 193.3778 15.81997779  3344
STARLINK-36907          
1 67940U 26037J   26070.16667824 -.00005718  00000+0 -24649-4 0  9990
2 67940  42.9983 189.4172 0001845 275.1322 181.3147 15.82006833  3436
STARLINK-36927          
1 67941U 26037K   26070.16667824  .00059760  00000+0  28495-3 0  9997
2 67941  42.9985 189.3956 0001949 270.7132 194.2828 15.81971969  3432
STARLINK-36914          
1 67942U 26037L   26070.16667824  .00017178  00000+0  84008-4 0  9998
2 67942  42.9985 189.4389 0001339 257.5199 190.3781 15.82000840  3430
STARLINK-36851          
1 67943U 26037M   26070.16667824  .00065543  00000+0  31209-3 0  9992
2 67943  42.9984 189.4284 0001167 263.1118 189.0698 15.81972239  3438
STARLINK-36892          
1 67944U 26037N   26070.16667824  .00001065  00000+0  75890-5 0  9998
2 67944  42.9983 189.4074 0001361 288.2600 172.4551 15.82008724  3439
STARLINK-36908          
1 67945U 26037P   26070.16667824  .00071803  00000+0  34154-3 0  9992
2 67945  42.9985 189.3851 0001865 257.8102 211.4725 15.81962655  3430
